[
    {
        "Altitude(m)": 556250.4432949442,
        "Argument of Periapsis(deg)": 0.019868973332140504,
        "Eccentricity": 0.0,
        "Inclination(deg)": 53.0,
        "Latitude(deg)": -10.759237638745704,
        "Longitude(deg)": 174.43235771519363,
        "Mean Anomaly(deg)": -13.361521397267175,
        "RAAN(deg)": 284.97043010558406,
        "Satellite Name": "Starlink Shell 1 1273",
        "Satellite Number": 1273,
        "Semi-Major Axis(m)": 6931778.249405717,
        "Time(s)": 570
    },
    {
        "Altitude(m)": 556130.2981051519,
        "Argument of Periapsis(deg)": 0.02021755181165174,
        "Eccentricity": 0.0,
        "Inclination(deg)": 53.0,
        "Latitude(deg)": -10.260600365843704,
        "Longitude(deg)": 174.78040984207416,
        "Mean Anomaly(deg)": -12.73469019371048,
        "RAAN(deg)": 284.96991133550654,
        "Satellite Name": "Starlink Shell 1 1273",
        "Satellite Number": 1273,
        "Semi-Major Axis(m)": 6931778.249405717,
        "Time(s)": 580
    },
    {
        "Altitude(m)": 556012.5112694444,
        "Argument of Periapsis(deg)": 0.020566130291162974,
        "Eccentricity": 0.0,
        "Inclination(deg)": 53.0,
        "Latitude(deg)": -9.76146971752092,
        "Longitude(deg)": 175.12725580842132,
        "Mean Anomaly(deg)": -12.107858990153733,
        "RAAN(deg)": 284.96939256542913,
        "Satellite Name": "Starlink Shell 1 1273",
        "Satellite Number": 1273,
        "Semi-Major Axis(m)": 6931778.249405717,
        "Time(s)": 590
    },
    {
        "Altitude(m)": 555897.1166635137,
        "Argument of Periapsis(deg)": 0.020914708770674213,
        "Eccentricity": 0.0,
        "Inclination(deg)": 53.0,
        "Latitude(deg)": -9.261870901325603,
        "Longitude(deg)": 175.47295807356,
        "Mean Anomaly(deg)": -11.481027786597087,
        "RAAN(deg)": 284.9688737953516,
        "Satellite Name": "Starlink Shell 1 1273",
        "Satellite Number": 1273,
        "Semi-Major Axis(m)": 6931778.249405717,
        "Time(s)": 600
    },
    {
        "Altitude(m)": 555784.1469569358,
        "Argument of Periapsis(deg)": 0.021263287250185448,
        "Eccentricity": 0.0,
        "Inclination(deg)": 53.0,
        "Latitude(deg)": -8.761828888310337,
        "Longitude(deg)": 175.81757860513642,
        "Mean Anomaly(deg)": -10.854196583040393,
        "RAAN(deg)": 284.9683550252741,
        "Satellite Name": "Starlink Shell 1 1273",
        "Satellite Number": 1273,
        "Semi-Major Axis(m)": 6931778.249405717,
        "Time(s)": 610
    },
    {
        "Altitude(m)": 555673.6335996048,
        "Argument of Periapsis(deg)": 0.021611865729696686,
        "Eccentricity": 0.0,
        "Inclination(deg)": 53.0,
        "Latitude(deg)": -8.261368426705962,
        "Longitude(deg)": 176.16117940964318,
        "Mean Anomaly(deg)": -10.227365379483595,
        "RAAN(deg)": 284.9678362551967,
        "Satellite Name": "Starlink Shell 1 1273",
        "Satellite Number": 1273,
        "Semi-Major Axis(m)": 6931778.249405717,
        "Time(s)": 620
    },
    {
        "Altitude(m)": 555565.6068087998,
        "Argument of Periapsis(deg)": 0.02196044420920792,
        "Eccentricity": 0.0,
        "Inclination(deg)": 53.0,
        "Latitude(deg)": -7.760514055382848,
        "Longitude(deg)": 176.50382138189107,
        "Mean Anomaly(deg)": -9.6005341759269,
        "RAAN(deg)": 284.9673174851192,
        "Satellite Name": "Starlink Shell 1 1273",
        "Satellite Number": 1273,
        "Semi-Major Axis(m)": 6931778.249405717,
        "Time(s)": 630
    },
    {
        "Altitude(m)": 555460.0955568334,
        "Argument of Periapsis(deg)": 0.02230902268871916,
        "Eccentricity": 0.0,
        "Inclination(deg)": 53.0,
        "Latitude(deg)": -7.2592901171176205,
        "Longitude(deg)": 176.84556567585358,
        "Mean Anomaly(deg)": -8.973702972370205,
        "RAAN(deg)": 284.9667987150417,
        "Satellite Name": "Starlink Shell 1 1273",
        "Satellite Number": 1273,
        "Semi-Major Axis(m)": 6931778.249405717,
        "Time(s)": 640
    },
    {
        "Altitude(m)": 555357.1275593289,
        "Argument of Periapsis(deg)": 0.022657601168230398,
        "Eccentricity": 0.0,
        "Inclination(deg)": 53.0,
        "Latitude(deg)": -6.757720771670328,
        "Longitude(deg)": 177.18647255397067,
        "Mean Anomaly(deg)": -8.346871768813406,
        "RAAN(deg)": 284.9662799449643,
        "Satellite Name": "Starlink Shell 1 1273",
        "Satellite Number": 1273,
        "Semi-Major Axis(m)": 6931778.249405717,
        "Time(s)": 650
    },
    {
        "Altitude(m)": 555256.7292641372,
        "Argument of Periapsis(deg)": 0.023006179647741636,
        "Eccentricity": 0.0,
        "Inclination(deg)": 53.0,
        "Latitude(deg)": -6.255830008690524,
        "Longitude(deg)": 177.52660191734017,
        "Mean Anomaly(deg)": -7.720040565256711,
        "RAAN(deg)": 284.9657611748868,
        "Satellite Name": "Starlink Shell 1 1273",
        "Satellite Number": 1273,
        "Semi-Major Axis(m)": 6931778.249405717,
        "Time(s)": 660
    },
    {
        "Altitude(m)": 555158.9258408775,
        "Argument of Periapsis(deg)": 0.023354758127252868,
        "Eccentricity": 0.0,
        "Inclination(deg)": 53.0,
        "Latitude(deg)": -5.753641660459867,
        "Longitude(deg)": 177.86601383582956,
        "Mean Anomaly(deg)": -7.093209361700066,
        "RAAN(deg)": 284.9652424048093,
        "Satellite Name": "Starlink Shell 1 1273",
        "Satellite Number": 1273,
        "Semi-Major Axis(m)": 6931778.249405717,
        "Time(s)": 670
    },
    {
        "Altitude(m)": 555063.741171117,
        "Argument of Periapsis(deg)": 0.023703336606764106,
        "Eccentricity": 0.0,
        "Inclination(deg)": 53.0,
        "Latitude(deg)": -5.251179414482463,
        "Longitude(deg)": 178.20476756523502,
        "Mean Anomaly(deg)": -6.4663781581433195,
        "RAAN(deg)": 284.96472363473185,
        "Satellite Name": "Starlink Shell 1 1273",
        "Satellite Number": 1273,
        "Semi-Major Axis(m)": 6931778.249405717,
        "Time(s)": 680
    },
    {
        "Altitude(m)": 554971.1978391828,
        "Argument of Periapsis(deg)": 0.024051915086275345,
        "Eccentricity": 0.0,
        "Inclination(deg)": 53.0,
        "Latitude(deg)": -4.748466825938625,
        "Longitude(deg)": 178.54292207723918,
        "Mean Anomaly(deg)": -5.839546954586624,
        "RAAN(deg)": 284.96420486465433,
        "Satellite Name": "Starlink Shell 1 1273",
        "Satellite Number": 1273,
        "Semi-Major Axis(m)": 6931778.249405717,
        "Time(s)": 690
    },
    {
        "Altitude(m)": 554881.3171236331,
        "Argument of Periapsis(deg)": 0.024400493565786583,
        "Eccentricity": 0.0,
        "Inclination(deg)": 53.0,
        "Latitude(deg)": -4.245527330010893,
        "Longitude(deg)": 178.88053658929962,
        "Mean Anomaly(deg)": -5.212715751029878,
        "RAAN(deg)": 284.9636860945769,
        "Satellite Name": "Starlink Shell 1 1273",
        "Satellite Number": 1273,
        "Semi-Major Axis(m)": 6931778.249405717,
        "Time(s)": 700
    },
    {
        "Altitude(m)": 554794.1189893977,
        "Argument of Periapsis(deg)": 0.024749072045297815,
        "Eccentricity": 0.0,
        "Inclination(deg)": 53.0,
        "Latitude(deg)": -3.7423842540922707,
        "Longitude(deg)": 179.2176695815963,
        "Mean Anomaly(deg)": -4.585884547473233,
        "RAAN(deg)": 284.96316732449947,
        "Satellite Name": "Starlink Shell 1 1273",
        "Satellite Number": 1273,
        "Semi-Major Axis(m)": 6931778.249405717,
        "Time(s)": 710
    },
    {
        "Altitude(m)": 554709.6220805298,
        "Argument of Periapsis(deg)": 0.025097650524809053,
        "Eccentricity": 0.0,
        "Inclination(deg)": 53.0,
        "Latitude(deg)": -3.239060829891576,
        "Longitude(deg)": 179.55437932679388,
        "Mean Anomaly(deg)": -3.959053343916384,
        "RAAN(deg)": 284.96264855442195,
        "Satellite Name": "Starlink Shell 1 1273",
        "Satellite Number": 1273,
        "Semi-Major Axis(m)": 6931778.249405717,
        "Time(s)": 720
    },
    {
        "Altitude(m)": 554627.8437136732,
        "Argument of Periapsis(deg)": 0.02544622900432029,
        "Eccentricity": 0.0,
        "Inclination(deg)": 53.0,
        "Latitude(deg)": -2.7355802054479366,
        "Longitude(deg)": 179.8907244197475,
        "Mean Anomaly(deg)": -3.3322221403596886,
        "RAAN(deg)": 284.9621297843444,
        "Satellite Name": "Starlink Shell 1 1273",
        "Satellite Number": 1273,
        "Semi-Major Axis(m)": 6931778.249405717,
        "Time(s)": 730
    },
    {
        "Altitude(m)": 554548.7998721373,
        "Argument of Periapsis(deg)": 0.02579480748383153,
        "Eccentricity": 0.0,
        "Inclination(deg)": 53.0,
        "Latitude(deg)": -2.2319654570586485,
        "Longitude(deg)": -179.7732372057117,
        "Mean Anomaly(deg)": -2.705390936803044,
        "RAAN(deg)": 284.961611014267,
        "Satellite Name": "Starlink Shell 1 1273",
        "Satellite Number": 1273,
        "Semi-Major Axis(m)": 6931778.249405717,
        "Time(s)": 740
    },
    {
        "Altitude(m)": 554472.5052006934,
        "Argument of Periapsis(deg)": 0.026143385963342765,
        "Eccentricity": 0.0,
        "Inclination(deg)": 53.0,
        "Latitude(deg)": -1.7282396011412942,
        "Longitude(deg)": -179.4374477471608,
        "Mean Anomaly(deg)": -2.0785597332462973,
        "RAAN(deg)": 284.96109224418956,
        "Satellite Name": "Starlink Shell 1 1273",
        "Satellite Number": 1273,
        "Semi-Major Axis(m)": 6931778.249405717,
        "Time(s)": 750
    }
]